CCSDS_OMM_VERS = 2.0
CREATION_DATE  = 
ORIGINATOR     = 

OBJECT_NAME    = ALOS (DAICHI)
OBJECT_ID      = 2006-002A
CENTER_NAME    = EARTH
REF_FRAME      = TEME
TIME_SYSTEM    = UTC
MEAN_ELEMENT_THEORY = SGP/SGP4

EPOCH          = 2025-12-11T14:32:34.920672
MEAN_MOTION    = 14.69482650
ECCENTRICITY   = .00010874
INCLINATION    = 98.1091
RA_OF_ASC_NODE = 297.1012
ARG_OF_PERICENTER = 115.3085
MEAN_ANOMALY   = 244.8234

EPHEMERIS_TYPE = 0
CLASSIFICATION_TYPE = U
NORAD_CAT_ID   = 28931
ELEMENT_SET_NO = 999
REV_AT_EPOCH   = 6054
BSTAR          = .42901538E-3
MEAN_MOTION_DOT = .2494E-4
MEAN_MOTION_DDOT = 0

CCSDS_OMM_VERS = 2.0
CREATION_DATE  = 
ORIGINATOR     = 

OBJECT_NAME    = H-2A R/B
OBJECT_ID      = 2006-002B
CENTER_NAME    = EARTH
REF_FRAME      = TEME
TIME_SYSTEM    = UTC
MEAN_ELEMENT_THEORY = SGP/SGP4

EPOCH          = 2025-12-11T15:53:36.581280
MEAN_MOTION    = 15.14533847
ECCENTRICITY   = .00544968
INCLINATION    = 98.2315
RA_OF_ASC_NODE = 120.3224
ARG_OF_PERICENTER = 180.0594
MEAN_ANOMALY   = 180.0639

EPHEMERIS_TYPE = 0
CLASSIFICATION_TYPE = U
NORAD_CAT_ID   = 28932
ELEMENT_SET_NO = 999
REV_AT_EPOCH   = 8110
BSTAR          = .84321043E-3
MEAN_MOTION_DOT = .1607E-3
MEAN_MOTION_DDOT = 0

CCSDS_OMM_VERS = 2.0
CREATION_DATE  = 
ORIGINATOR     = 

OBJECT_NAME    = RESURS-DK 1
OBJECT_ID      = 2006-021A
CENTER_NAME    = EARTH
REF_FRAME      = TEME
TIME_SYSTEM    = UTC
MEAN_ELEMENT_THEORY = SGP/SGP4

EPOCH          = 2025-12-11T12:10:38.192736
MEAN_MOTION    = 15.12150737
ECCENTRICITY   = .00073592
INCLINATION    = 69.9334
RA_OF_ASC_NODE = 105.0231
ARG_OF_PERICENTER = 260.8464
MEAN_ANOMALY   = 99.1869

EPHEMERIS_TYPE = 0
CLASSIFICATION_TYPE = U
NORAD_CAT_ID   = 29228
ELEMENT_SET_NO = 999
REV_AT_EPOCH   = 7419
BSTAR          = .26953869E-3
MEAN_MOTION_DOT = .4555E-4
MEAN_MOTION_DDOT = 0

CCSDS_OMM_VERS = 2.0
CREATION_DATE  = 
ORIGINATOR     = 

OBJECT_NAME    = CZ-4B R/B
OBJECT_ID      = 2006-046C
CENTER_NAME    = EARTH
REF_FRAME      = TEME
TIME_SYSTEM    = UTC
MEAN_ELEMENT_THEORY = SGP/SGP4

EPOCH          = 2025-12-11T09:11:21.263136
MEAN_MOTION    = 15.15852150
ECCENTRICITY   = .00331638
INCLINATION    = 97.5738
RA_OF_ASC_NODE = 25.5246
ARG_OF_PERICENTER = 211.2216
MEAN_ANOMALY   = 148.7048

EPHEMERIS_TYPE = 0
CLASSIFICATION_TYPE = U
NORAD_CAT_ID   = 29507
ELEMENT_SET_NO = 999
REV_AT_EPOCH   = 4666
BSTAR          = .48113365E-3
MEAN_MOTION_DOT = .9265E-4
MEAN_MOTION_DDOT = 0

CCSDS_OMM_VERS = 2.0
CREATION_DATE  = 
ORIGINATOR     = 

OBJECT_NAME    = CZ-2C R/B
OBJECT_ID      = 2007-010B
CENTER_NAME    = EARTH
REF_FRAME      = TEME
TIME_SYSTEM    = UTC
MEAN_ELEMENT_THEORY = SGP/SGP4

EPOCH          = 2025-12-11T14:11:42.563904
MEAN_MOTION    = 14.20209401
ECCENTRICITY   = .00589091
INCLINATION    = 98.3974
RA_OF_ASC_NODE = 98.3001
ARG_OF_PERICENTER = 189.3383
MEAN_ANOMALY   = 170.6704

EPHEMERIS_TYPE = 0
CLASSIFICATION_TYPE = U
NORAD_CAT_ID   = 31114
ELEMENT_SET_NO = 999
REV_AT_EPOCH   = 96721
BSTAR          = .15305234E-3
MEAN_MOTION_DOT = .292E-5
MEAN_MOTION_DDOT = 0

CCSDS_OMM_VERS = 2.0
CREATION_DATE  = 
ORIGINATOR     = 

OBJECT_NAME    = COSMO-SKYMED 1
OBJECT_ID      = 2007-023A
CENTER_NAME    = EARTH
REF_FRAME      = TEME
TIME_SYSTEM    = UTC
MEAN_ELEMENT_THEORY = SGP/SGP4

EPOCH          = 2025-12-11T14:01:00.803712
MEAN_MOTION    = 14.95749150
ECCENTRICITY   = .0001113
INCLINATION    = 97.8835
RA_OF_ASC_NODE = 170.9757
ARG_OF_PERICENTER = 87.2270
MEAN_ANOMALY   = 272.9078

EPHEMERIS_TYPE = 0
CLASSIFICATION_TYPE = U
NORAD_CAT_ID   = 31598
ELEMENT_SET_NO = 999
REV_AT_EPOCH   = 173
BSTAR          = .51419605E-3
MEAN_MOTION_DOT = .5673E-4
MEAN_MOTION_DDOT = 0

CCSDS_OMM_VERS = 2.0
CREATION_DATE  = 
ORIGINATOR     = 

OBJECT_NAME    = COSMOS 2428
OBJECT_ID      = 2007-029A
CENTER_NAME    = EARTH
REF_FRAME      = TEME
TIME_SYSTEM    = UTC
MEAN_ELEMENT_THEORY = SGP/SGP4

EPOCH          = 2025-12-11T11:08:10.276512
MEAN_MOTION    = 14.12889368
ECCENTRICITY   = .00035934
INCLINATION    = 70.9369
RA_OF_ASC_NODE = 28.5587
ARG_OF_PERICENTER = 25.3070
MEAN_ANOMALY   = 334.8227

EPHEMERIS_TYPE = 0
CLASSIFICATION_TYPE = U
NORAD_CAT_ID   = 31792
ELEMENT_SET_NO = 999
REV_AT_EPOCH   = 95163
BSTAR          = .92414036E-4
MEAN_MOTION_DOT = .124E-5
MEAN_MOTION_DDOT = 0

CCSDS_OMM_VERS = 2.0
CREATION_DATE  = 
ORIGINATOR     = 

OBJECT_NAME    = SL-16 R/B
OBJECT_ID      = 2007-029B
CENTER_NAME    = EARTH
REF_FRAME      = TEME
TIME_SYSTEM    = UTC
MEAN_ELEMENT_THEORY = SGP/SGP4

EPOCH          = 2025-12-11T11:29:46.246272
MEAN_MOTION    = 14.14814814
ECCENTRICITY   = .00022163
INCLINATION    = 70.9757
RA_OF_ASC_NODE = 357.8082
ARG_OF_PERICENTER = 262.8059
MEAN_ANOMALY   = 203.4823

EPHEMERIS_TYPE = 0
CLASSIFICATION_TYPE = U
NORAD_CAT_ID   = 31793
ELEMENT_SET_NO = 999
REV_AT_EPOCH   = 95289
BSTAR          = -.18614932E-4
MEAN_MOTION_DOT = -.84E-6
MEAN_MOTION_DDOT = 0

CCSDS_OMM_VERS = 2.0
CREATION_DATE  = 
ORIGINATOR     = 

OBJECT_NAME    = KORONAS-FOTON
OBJECT_ID      = 2009-003A
CENTER_NAME    = EARTH
REF_FRAME      = TEME
TIME_SYSTEM    = UTC
MEAN_ELEMENT_THEORY = SGP/SGP4

EPOCH          = 2025-12-11T10:56:27.600000
MEAN_MOTION    = 15.41145084
ECCENTRICITY   = .00131743
INCLINATION    = 82.4315
RA_OF_ASC_NODE = 7.4361
ARG_OF_PERICENTER = 112.4311
MEAN_ANOMALY   = 247.8332

EPHEMERIS_TYPE = 0
CLASSIFICATION_TYPE = U
NORAD_CAT_ID   = 33504
ELEMENT_SET_NO = 999
REV_AT_EPOCH   = 93214
BSTAR          = .50319078E-3
MEAN_MOTION_DOT = .20967E-3
MEAN_MOTION_DDOT = 0

CCSDS_OMM_VERS = 2.0
CREATION_DATE  = 
ORIGINATOR     = 

OBJECT_NAME    = CZ-2C R/B
OBJECT_ID      = 2011-030B
CENTER_NAME    = EARTH
REF_FRAME      = TEME
TIME_SYSTEM    = UTC
MEAN_ELEMENT_THEORY = SGP/SGP4

EPOCH          = 2025-12-11T16:03:20.067264
MEAN_MOTION    = 14.80896974
ECCENTRICITY   = .00513692
INCLINATION    = 97.8411
RA_OF_ASC_NODE = 299.7992
ARG_OF_PERICENTER = 277.2055
MEAN_ANOMALY   = 256.8484

EPHEMERIS_TYPE = 0
CLASSIFICATION_TYPE = U
NORAD_CAT_ID   = 37731
ELEMENT_SET_NO = 999
REV_AT_EPOCH   = 77706
BSTAR          = .35192275E-3
MEAN_MOTION_DOT = .2727E-4
MEAN_MOTION_DDOT = 0

CCSDS_OMM_VERS = 2.0
CREATION_DATE  = 
ORIGINATOR     = 

OBJECT_NAME    = H-2A R/B
OBJECT_ID      = 2012-025E
CENTER_NAME    = EARTH
REF_FRAME      = TEME
TIME_SYSTEM    = UTC
MEAN_ELEMENT_THEORY = SGP/SGP4

EPOCH          = 2025-12-11T15:14:57.947424
MEAN_MOTION    = 14.94440865
ECCENTRICITY   = .00436042
INCLINATION    = 98.4599
RA_OF_ASC_NODE = 300.7803
ARG_OF_PERICENTER = 239.7826
MEAN_ANOMALY   = 119.9071

EPHEMERIS_TYPE = 0
CLASSIFICATION_TYPE = U
NORAD_CAT_ID   = 38341
ELEMENT_SET_NO = 999
REV_AT_EPOCH   = 73506
BSTAR          = .54639716E-3
MEAN_MOTION_DOT = .5935E-4
MEAN_MOTION_DDOT = 0

CCSDS_OMM_VERS = 2.0
CREATION_DATE  = 
ORIGINATOR     = 

OBJECT_NAME    = SHIJIAN-16 (SJ-16)
OBJECT_ID      = 2013-057A
CENTER_NAME    = EARTH
REF_FRAME      = TEME
TIME_SYSTEM    = UTC
MEAN_ELEMENT_THEORY = SGP/SGP4

EPOCH          = 2025-12-11T14:18:55.198080
MEAN_MOTION    = 14.91981538
ECCENTRICITY   = .00176036
INCLINATION    = 74.9737
RA_OF_ASC_NODE = 351.8178
ARG_OF_PERICENTER = 322.2342
MEAN_ANOMALY   = 37.7609

EPHEMERIS_TYPE = 0
CLASSIFICATION_TYPE = U
NORAD_CAT_ID   = 39358
ELEMENT_SET_NO = 999
REV_AT_EPOCH   = 65836
BSTAR          = .2078017E-3
MEAN_MOTION_DOT = .2083E-4
MEAN_MOTION_DDOT = 0

