ALOS (DAICHI)           
1 28931U 06002A   25345.60595973  .00002494  00000+0  42902-3 0  9992
2 28931  98.1091 297.1012 0001087 115.3085 244.8234 14.69482650 60541
H-2A R/B                
1 28932U 06002B   25345.66222895  .00016070  00000+0  84321-3 0  9995
2 28932  98.2315 120.3224 0054496 180.0594 180.0639 15.14533847 81101
RESURS-DK 1             
1 29228U 06021A   25345.50738649  .00004555  00000+0  26954-3 0  9990
2 29228  69.9334 105.0231 0007359 260.8464  99.1869 15.12150737 74190
CZ-4B R/B               
1 29507U 06046C   25345.38288499  .00009265  00000+0  48113-3 0  9990
2 29507  97.5738  25.5246 0033163 211.2216 148.7048 15.15852150 46666
CZ-2C R/B               
1 31114U 07010B   25345.59146486  .00000292  00000+0  15305-3 0  9999
2 31114  98.3974  98.3001 0058909 189.3383 170.6704 14.20209401967212
COSMO-SKYMED 1          
1 31598U 07023A   25345.58403708  .00005673  00000+0  51420-3 0  9997
2 31598  97.8835 170.9757 0001113  87.2270 272.9078 14.95749150  1737
COSMOS 2428             
1 31792U 07029A   25345.46400783  .00000124  00000+0  92414-4 0  9991
2 31792  70.9369  28.5587 0003593  25.3070 334.8227 14.12889368951633
SL-16 R/B               
1 31793U 07029B   25345.47900748 -.00000084  00000+0 -18615-4 0  9997
2 31793  70.9757 357.8082 0002216 262.8059 203.4823 14.14814814952897
KORONAS-FOTON           
1 33504U 09003A   25345.45587500  .00020967  00000+0  50319-3 0  9994
2 33504  82.4315   7.4361 0013174 112.4311 247.8332 15.41145084932141
CZ-2C R/B               
1 37731U 11030B   25345.66898226  .00002727  00000+0  35192-3 0  9992
2 37731  97.8411 299.7992 0051369 277.2055 256.8484 14.80896974777062
H-2A R/B                
1 38341U 12025E   25345.63539291  .00005935  00000+0  54640-3 0  9999
2 38341  98.4599 300.7803 0043604 239.7826 119.9071 14.94440865735064
SHIJIAN-16 (SJ-16)      
1 39358U 13057A   25345.59647220  .00002083  00000+0  20780-3 0  9990
2 39358  74.9737 351.8178 0017603 322.2342  37.7609 14.91981538658364
